OSCAR III [-]           
1 01293U 65016F   08210.86532442 -.00000039  00000-0  91821-5 0  3014
2 01293  70.0706 150.1370 0020268 243.7495 116.1528 14.04647438214402
AO-5 [-]                
1 04321U 70008B   08209.99137010 -.00000031  00000-0  10000-3 0   343
2 04321 102.1271 208.9763 0027489 233.4286 126.4252 12.52153652760185
AO-6 [-]                
1 06236U 72082B   08210.89114466 -.00000027  00000-0  10000-3 0   238
2 06236 101.4125 231.1116 0003868 158.7247 201.3988 12.53074477636913
AO-7 [P]                
1 07530U 74089B   08210.31412421 -.00000027  00000-0  10000-3 0  2382
2 07530 101.4628 240.4316 0011773 180.5272 179.5790 12.53573849542133
AO-8 [-]                
1 10703U 78026B   08211.18199655 -.00000261  00000-0 -15159-3 0  2224
2 10703  98.8778 261.4296 0006629 347.1676  12.9318 13.98816621550860
AO-10 [-]               
1 14129U 83058B   08210.00821492 -.00000168  00000-0  10000-3 0  5354
2 14129  26.0089 203.4118 5973930 143.8045 277.4875  2.05870376160975
UO-11 [P]               
1 14781U 84021B   08210.09834418 -.00000049  00000-0  80880-6 0  7301
2 14781  98.1516 244.7381 0008327 307.2981  52.7443 14.79655144309904
FO-12 [-]               
1 16909U 86061B   08210.83201386 -.00000083  00000-0  10000-3 0  4191
2 16909  50.0146  75.9559 0011531 103.2460 256.9662 12.44452020998714
UO-14 [-]               
1 20437U 90005B   08210.37246795 -.00000009  00000-0  11971-4 0  6950
2 20437  98.2900 176.0714 0011795  50.5304 309.6922 14.31520648966727
UO-15 [-]               
1 20438U 90005C   08210.55006569 -.00000020  00000-0  81260-5 0  1827
2 20438  98.3493 167.6852 0010931  75.5314 284.7080 14.30427929966202
AO-16 [P]               
1 20439U 90005D   08211.00042484 -.00000010  00000-0  11564-4 0  3803
2 20439  98.2328 188.9308 0011904  55.0335 305.1963 14.31798950966909
DO-17 [-]               
1 20440U 90005E   08210.44062224 -.00000008  00000-0  12167-4 0   811
2 20440  98.2120 193.8396 0011959  52.3237 307.9034 14.32101364966956
WO-18 [-]               
1 20441U 90005F   08210.67032903  .00000005  00000-0  16965-4 0  5909
2 20441  98.2178 192.5887 0012551  54.9746 305.2610 14.31867348966921
LO-19 [P]               
1 20442U 90005G   08210.97093204 -.00000103  00000-0 -23186-4 0  3052
2 20442  98.2039 197.3128 0012773  53.0974 307.1372 14.32036709967059
FO-20 [-]               
1 20480U 90013C   08209.95263117 -.00000043  00000-0 -25176-4 0  8960
2 20480  99.0261 185.2979 0540213 184.4852 175.1288 12.83357279865313
AO-21 [-]               
1 21087U 91006A   08210.79851026  .00000027  00000-0  12279-4 0   268
2 21087  82.9431 285.5578 0036720 105.4888 255.0324 13.75035426877974
RS-12 & RS-13 [-]       
1 21089U 91007A   08210.39481842  .00000054  00000-0  40535-4 0  9087
2 21089  82.9237 146.9529 0029737 148.5194 211.7747 13.74481402876711
UO-22 [-]               
1 21575U 91050B   08210.44776116 -.00000044  00000-0 -14892-6 0  3389
2 21575  98.3973 158.7179 0006478 272.9714  87.0737 14.39644709894129
KO-23 [-]               
1 22077U 92052B   08210.73684428 -.00000037  00000-0  10000-3 0  4933
2 22077  66.0864 284.0756 0000648  21.1683 338.9357 12.86444786749919
AO-24 [-]               
1 22654U 93031B   08208.19794986 -.00000111  00000-0  10000-3 0  1615
2 22654   5.3282 343.4347 2895732 141.9652 242.7494  1.42205789 74486
AO-27 [+]               
1 22825U 93061C   08210.85507106 -.00000036  00000-0  23809-5 0   270
2 22825  98.3861 169.3199 0009004 133.2260 226.9688 14.29243585773724
IO-26 [-]               
1 22826U 93061D   08210.41190347  .00000013  00000-0  21497-4 0  7336
2 22826  98.3795 169.7841 0009459 130.7203 229.4805 14.29492924773757
KO-25 [-]               
1 22828U 93061F   08210.44443665 -.00000079  00000-0 -14386-4 0  9611
2 22828  98.3729 169.7950 0010863 108.4815 251.7490 14.29795680742028
PO-28 [+]               
1 22829U 93061G   08209.95847477 -.00000005  00000-0  14123-4 0    06
2 22829  98.3680 170.4431 0010623 105.7150 254.5190 14.30193591773953
RS-15 [P]               
1 23439U 94085A   08209.72327497 -.00000039  00000-0  10000-3 0  1424
2 23439  64.8150  69.4999 0147063 114.9461 246.6821 11.27552465559534
FO-29 [P]               
1 24278U 96046B   08210.24026760  .00000032  00000-0  65363-4 0  8245
2 24278  98.5846 121.1565 0351324 109.2684 254.6803 13.52938752589942
MO-30 [-]               
1 24305U 96052B   08209.72832785  .00000011  00000-0 -50283-5 0  8712
2 24305  82.9321 233.9885 0031761  77.6857 282.7853 13.73560586596130
TO-31 [-]               
1 25396U 98043C   08210.16561117 -.00000139  00000-0 -42898-4 0  1664
2 25396  98.3731 248.3256 0003631 100.9714 259.1887 14.23759206522191
GO-32 [P]               
1 25397U 98043D   08210.09954354 -.00000052  00000-0 -47575-5 0  6573
2 25397  98.3622 243.2375 0002280 110.4379 249.7050 14.23146149522035
SO-33 [P]               
1 25509U 98061B   08210.08113884  .00000335  00000-0  56332-4 0  2514
2 25509  31.4317  85.1200 0354543  24.7162 337.0011 14.28219370509460
PO-34 [-]               
1 25520U 98064B   08210.50597403  .00000268  00000-0  34544-5 0   469
2 25520  28.4603 262.1488 0005027  16.1337 343.9417 15.17213202539445
ARISS [+]               
1 25544U 98067A   08211.19877315  .00006090  00000-0  48647-4 0  9474
2 25544  51.6414 160.4195 0009944   8.6450 186.8090 15.72711471555146
SO-35 [-]               
1 25636U 99008C   08210.11920724 -.00000002  00000-0  74700-5 0   699
2 25636  96.4799 105.9138 0148193 167.4966 192.9969 14.43438369496357
UO-36 [-]               
1 25693U 99021A   08210.05923938 -.00000108  00000-0  50870-5 0  6886
2 25693  64.5578  31.6066 0038646 231.6530 128.0983 14.78716475499914
OO-38 [-]               
1 26063U 00004C   08210.75334585 -.00000020  00000-0  13115-4 0  2713
2 26063 100.1907 292.8575 0037244  92.4714 268.0730 14.35840741445536
SO-41 [-]               
1 26545U 00057A   08209.99857775  .00000013  00000-0  20639-4 0   269
2 26545  64.5575  36.4518 0033831 330.0932  29.8232 14.80520163423208
MO-46 [-]               
1 26548U 00057D   08209.95741755  .00000008  00000-0  19223-4 0  1596
2 26548  64.5591   4.1151 0033976 318.8635  40.9918 14.83281285423867
SO-42 [-]               
1 26549U 00057E   08210.85969430 -.00000098  00000-0  63617-5 0  1036
2 26549  64.5576  48.6566 0035034 338.0026  21.9512 14.79377571423036
AO-40 [-]               
1 26609U 00072B   08209.41216636 -.00000202  00000-0  10000-3 0   956
2 26609   7.6408  69.9170 7924100 105.7890 345.1347  1.25583843 35548
NO-44 [P]               
1 26931U 01043C   08210.91430011  .00000188  00000-0  10578-3 0  9383
2 26931  67.0521 177.1609 0007264 269.4373  90.5916 14.29529951356379
NO-45 [-]               
1 26932U 01043D   08210.89043117 -.00000054  00000-0  11203-4 0  9412
2 26932  67.0517 177.0888 0007084 284.8834  75.1485 14.29589204356418
BO-47 & BO-48 [-]       
1 27422U 02021B   08209.86410809 -.00000100  00000-0 -22798-4 0  8126
2 27422  98.5490 290.1487 0013379  95.0858 265.1817 14.28454182323101
AO-49 [-]               
1 27605U 02058A   08210.56401797 -.00000072  00000-0  11207-4 0  6919
2 27605  64.5600 276.5904 0085656 272.2962  86.8340 14.72357327301291
SO-50 [+]               
1 27607U 02058C   08209.78700610 -.00000076  00000-0  10610-4 0  6628
2 27607  64.5600 290.3379 0086311 271.5569  87.5650 14.71370189300940
DTUSAT [-]              
1 27842U 03031C   08210.62258651  .00000018  00000-0  28476-4 0  3406
2 27842  98.7102 219.3071 0009559 343.1913  16.8948 14.20940079263392
CO-55 [+]               
1 27844U 03031E   08210.21753483  .00000012  00000-0  25792-4 0  3600
2 27844  98.7155 217.9132 0010351   3.9684 356.1578 14.20589323263268
AAU CUBESAT [-]         
1 27846U 03031G   08209.98858859  .00000013  00000-0  26430-4 0  2821
2 27846  98.7094 218.6753 0009596 344.6526  15.4366 14.20941029263308
CANX-1 [-]              
1 27847U 03031H   08209.99351971  .00000016  00000-0  27786-4 0  2958
2 27847  98.7099 218.6765 0009475 344.1161  15.9728 14.20927017263255
CO-57 [+]               
1 27848U 03031J   08210.57336035  .00000002  00000-0  21262-4 0  3116
2 27848  98.7164 217.3527 0010369   5.7619 354.3676 14.20397889263286
RS-22 [+]               
1 27939U 03042A   08210.62283347  .00000026  00000-0  13891-4 0  5568
2 27939  97.9903  90.4071 0014693  74.2235 286.0601 14.63248073258259
AO-51 [+]               
1 28375U 04025K   08210.30540766 -.00000006  00000-0  10821-4 0  1599
2 28375  98.0691 232.5596 0085244  28.3992 332.1809 14.40614208214326
VO-52 [+]               
1 28650U 05017B   08210.20127354 -.00000176  00000-0 -15717-4 0  9912
2 28650  97.7871 275.6818 0027283   9.6611 350.4938 14.81483965174670
UWE-1 [-]               
1 28892U 05043C   08210.76272258 -.00000014  00000-0  67544-5 0  1080
2 28892  98.0902 103.4002 0016222 280.3114  79.6270 14.59647414146660
XO-53 [-]               
1 28894U 05043E   08209.89235505  .00000028  00000-0  15487-4 0  2216
2 28894  98.0915 102.8047 0016664 286.0060  73.9303 14.59627609146546
CO-58 [+]               
1 28895U 05043F   08210.18115675  .00000125  00000-0  35876-4 0   801
2 28895  98.0935 103.2108 0016810 282.9101  77.0209 14.59685821146467
NCUBE-2 [-]             
1 28897U 05043H   08210.27796511  .00000078  00000-0  25968-4 0  6115
2 28897  98.0910 103.2318 0016274 284.5747  75.3639 14.59857366138760
CO-56 [P]               
1 28941U 06005C   08211.07577729  .00014363  26329-5  10736-3 0  2381
2 28941  98.1081 327.5802 0159916 248.4850 109.9357 15.58465698136564
PEHUENSAT 1 [+]         
1 29712U 07001D   08211.20332129  .00000425  00000-0  62616-4 0  6592
2 29712  97.8725 268.5971 0012942 243.9785 116.0106 14.80223825 83680
